IRIDIUM 136             
1 42962U 17061H   24173.52141744  .00000242  00000+0  79254-4 0  9991
2 42962  86.3969 328.5080 0001847  95.9222 264.2184 14.34219324350829
